start=new Date('2022-02-17T00:00:00.000Z').valueOf();
sats=[{"MEAN_ANOMALY":"298.4838","CLASSIFICATION_TYPE":"U","PERIOD":"95.592","REF_FRAME":"TEME","OBJECT_TYPE":"PAYLOAD","EPOCH":"2022-02-16T19:39:30.550176","ELEMENT_SET_NO":"999","DECAY_DATE":null,"APOAPSIS":"548.140","REV_AT_EPOCH":"5277","RCS_SIZE":"LARGE","MEAN_MOTION":"15.06408757","CENTER_NAME":"EARTH","EPHEMERIS_TYPE":"0","TLE_LINE1":"1 47886U 21021AC  22047.81910359  .00005907  00000-0  41499-3 0  9991","MEAN_MOTION_DDOT":"0.0000000000000","MEAN_MOTION_DOT":"0.00005907","PERIAPSIS":"546.233","GP_ID":"196132679","TLE_LINE2":"2 47886  53.0541  88.9959 0001377  61.6289 298.4838 15.06408757 52777","LAUNCH_DATE":"2021-03-14","TIME_SYSTEM":"UTC","INCLINATION":"53.0541","OBJECT_NAME":"STARLINK-2345","NORAD_CAT_ID":"47886","ECCENTRICITY":"0.00013770","COUNTRY_CODE":"US","SITE":"AFETR","OBJECT_ID":"2021-021AC","ARG_OF_PERICENTER":"61.6289","MEAN_ELEMENT_THEORY":"SGP4","RA_OF_ASC_NODE":"88.9959","SEMIMAJOR_AXIS":"6925.322","FILE":"3302660","BSTAR":"0.00041499000000"},{"GP_ID":"196131427","INCLINATION":"53.0535","TIME_SYSTEM":"UTC","LAUNCH_DATE":"2021-03-14","TLE_LINE2":"2 47887  53.0535  93.8893 0001554  73.5884 286.5276 15.06398730 52709","OBJECT_NAME":"STARLINK-2346","SITE":"AFETR","COUNTRY_CODE":"US","ECCENTRICITY":"0.00015540","NORAD_CAT_ID":"47887","RA_OF_ASC_NODE":"93.8893","MEAN_ELEMENT_THEORY":"SGP4","ARG_OF_PERICENTER":"73.5884","OBJECT_ID":"2021-021AD","FILE":"3302660","BSTAR":"0.00009364400000","SEMIMAJOR_AXIS":"6925.352","MEAN_ANOMALY":"286.5276","PERIOD":"95.592","CLASSIFICATION_TYPE":"U","EPOCH":"2022-02-16T20:14:42.597312","OBJECT_TYPE":"PAYLOAD","REF_FRAME":"TEME","APOAPSIS":"548.294","DECAY_DATE":null,"ELEMENT_SET_NO":"999","MEAN_MOTION":"15.06398730","RCS_SIZE":"LARGE","REV_AT_EPOCH":"5270","EPHEMERIS_TYPE":"0","CENTER_NAME":"EARTH","TLE_LINE1":"1 47887U 21021AD  22047.84354858  .00001114  00000-0  93644-4 0  9997","PERIAPSIS":"546.141","MEAN_MOTION_DOT":"0.00001114","MEAN_MOTION_DDOT":"0.0000000000000"},{"MEAN_ANOMALY":"302.7195","PERIOD":"95.593","CLASSIFICATION_TYPE":"U","EPOCH":"2022-02-16T14:25:44.268384","OBJECT_TYPE":"PAYLOAD","REF_FRAME":"TEME","APOAPSIS":"548.340","DECAY_DATE":null,"ELEMENT_SET_NO":"999","RCS_SIZE":"LARGE","MEAN_MOTION":"15.06391760","REV_AT_EPOCH":"5281","EPHEMERIS_TYPE":"0","CENTER_NAME":"EARTH","TLE_LINE1":"1 47888U 21021AE  22047.60120681 -.00000462  00000-0 -12149-4 0  9995","PERIAPSIS":"546.138","MEAN_MOTION_DOT":"-0.00000462","MEAN_MOTION_DDOT":"0.0000000000000","GP_ID":"196131178","INCLINATION":"53.0556","LAUNCH_DATE":"2021-03-14","TIME_SYSTEM":"UTC","TLE_LINE2":"2 47888  53.0556  84.9698 0001590  57.3947 302.7195 15.06391760 52816","OBJECT_NAME":"STARLINK-2348","COUNTRY_CODE":"US","SITE":"AFETR","NORAD_CAT_ID":"47888","ECCENTRICITY":"0.00015900","RA_OF_ASC_NODE":"84.9698","MEAN_ELEMENT_THEORY":"SGP4","ARG_OF_PERICENTER":"57.3947","OBJECT_ID":"2021-021AE","BSTAR":"-0.00001214900000","FILE":"3302660","SEMIMAJOR_AXIS":"6925.374"},{"NORAD_CAT_ID":"47889","ECCENTRICITY":"0.00017180","SITE":"AFETR","COUNTRY_CODE":"US","OBJECT_NAME":"STARLINK-2349","SEMIMAJOR_AXIS":"6925.320","FILE":"3302660","BSTAR":"0.00020379000000","ARG_OF_PERICENTER":"56.4230","OBJECT_ID":"2021-021AF","RA_OF_ASC_NODE":"84.0329","MEAN_ELEMENT_THEORY":"SGP4","LAUNCH_DATE":"2021-03-14","TIME_SYSTEM":"UTC","TLE_LINE2":"2 47889  53.0532  84.0329 0001718  56.4230 303.6922 15.06409260 52891","INCLINATION":"53.0532","GP_ID":"196132429","CENTER_NAME":"EARTH","EPHEMERIS_TYPE":"0","REV_AT_EPOCH":"5289","MEAN_MOTION":"15.06409260","RCS_SIZE":"LARGE","MEAN_MOTION_DDOT":"0.0000000000000","PERIAPSIS":"545.995","MEAN_MOTION_DOT":"0.00002756","TLE_LINE1":"1 47889U 21021AF  22047.81129696  .00002756  00000-0  20379-3 0  9993","PERIOD":"95.592","CLASSIFICATION_TYPE":"U","MEAN_ANOMALY":"303.6922","ELEMENT_SET_NO":"999","APOAPSIS":"548.375","DECAY_DATE":null,"OBJECT_TYPE":"PAYLOAD","REF_FRAME":"TEME","EPOCH":"2022-02-16T19:28:16.057344"},{"PERIOD":"93.377","CLASSIFICATION_TYPE":"U","MEAN_ANOMALY":"268.4036","APOAPSIS":"440.525","DECAY_DATE":null,"ELEMENT_SET_NO":"999","EPOCH":"2022-02-16T21:11:36.547296","OBJECT_TYPE":"PAYLOAD","REF_FRAME":"TEME","EPHEMERIS_TYPE":"0","CENTER_NAME":"EARTH","MEAN_MOTION":"15.42139342","RCS_SIZE":"LARGE","REV_AT_EPOCH":"5215","PERIAPSIS":"439.072","MEAN_MOTION_DOT":"0.00008524","MEAN_MOTION_DDOT":"0.0000000000000","TLE_LINE1":"1 47890U 21021AG  22047.88306189  .00008524  00000-0  20524-3 0  9997","INCLINATION":"53.0553","TIME_SYSTEM":"UTC","LAUNCH_DATE":"2021-03-14","TLE_LINE2":"2 47890  53.0553  66.0585 0001066  91.7090 268.4036 15.42139342 52156","GP_ID":"196132180","COUNTRY_CODE":"US","SITE":"AFETR","ECCENTRICITY":"0.00010660","NORAD_CAT_ID":"47890","OBJECT_NAME":"STARLINK-2350","BSTAR":"0.00020524000000","FILE":"3302660","SEMIMAJOR_AXIS":"6817.934","RA_OF_ASC_NODE":"66.0585","MEAN_ELEMENT_THEORY":"SGP4","OBJECT_ID":"2021-021AG","ARG_OF_PERICENTER":"91.7090"},{"CENTER_NAME":"EARTH","EPHEMERIS_TYPE":"0","REV_AT_EPOCH":"5286","MEAN_MOTION":"15.06403941","RCS_SIZE":"LARGE","MEAN_MOTION_DDOT":"0.0000000000000","PERIAPSIS":"546.113","MEAN_MOTION_DOT":"0.00001508","TLE_LINE1":"1 47891U 21021AH  22047.81774885  .00001508  00000-0  12008-3 0  9996","PERIOD":"95.592","CLASSIFICATION_TYPE":"U","MEAN_ANOMALY":"297.4211","ELEMENT_SET_NO":"999","APOAPSIS":"548.290","DECAY_DATE":null,"OBJECT_TYPE":"PAYLOAD","REF_FRAME":"TEME","EPOCH":"2022-02-16T19:37:33.500640","ECCENTRICITY":"0.00015720","NORAD_CAT_ID":"47891","SITE":"AFETR","COUNTRY_CODE":"US","OBJECT_NAME":"STARLINK-2351","SEMIMAJOR_AXIS":"6925.336","BSTAR":"0.00012008000000","FILE":"3302660","ARG_OF_PERICENTER":"62.6938","OBJECT_ID":"2021-021AH","RA_OF_ASC_NODE":"94.0008","MEAN_ELEMENT_THEORY":"SGP4","TIME_SYSTEM":"UTC","LAUNCH_DATE":"2021-03-14","TLE_LINE2":"2 47891  53.0564  94.0008 0001572  62.6938 297.4211 15.06403941 52864","INCLINATION":"53.0564","GP_ID":"196130928"},{"MEAN_ANOMALY":"272.6667","CLASSIFICATION_TYPE":"U","PERIOD":"95.505","EPOCH":"2022-02-16T19:46:33.368448","REF_FRAME":"TEME","OBJECT_TYPE":"PAYLOAD","DECAY_DATE":null,"APOAPSIS":"543.966","ELEMENT_SET_NO":"999","MEAN_MOTION":"15.07771201","RCS_SIZE":"LARGE","REV_AT_EPOCH":"5270","EPHEMERIS_TYPE":"0","CENTER_NAME":"EARTH","TLE_LINE1":"1 47892U 21021AJ  22047.82399732  .00030550  00000-0  19860-2 0  9993","MEAN_MOTION_DOT":"0.00030550","PERIAPSIS":"542.063","MEAN_MOTION_DDOT":"0.0000000000000","GP_ID":"196131678","INCLINATION":"53.0562","TLE_LINE2":"2 47892  53.0562  93.8478 0001375  87.4480 272.6667 15.07771201 52700","TIME_SYSTEM":"UTC","LAUNCH_DATE":"2021-03-14","OBJECT_NAME":"STARLINK-2352","COUNTRY_CODE":"US","SITE":"AFETR","NORAD_CAT_ID":"47892","ECCENTRICITY":"0.00013750","MEAN_ELEMENT_THEORY":"SGP4","RA_OF_ASC_NODE":"93.8478","ARG_OF_PERICENTER":"87.4480","OBJECT_ID":"2021-021AJ","BSTAR":"0.00198600000000","FILE":"3302660","SEMIMAJOR_AXIS":"6921.149"},{"MEAN_MOTION_DOT":"0.00001201","PERIAPSIS":"546.239","MEAN_MOTION_DDOT":"0.0000000000000","TLE_LINE1":"1 47894U 21021AL  22047.57540276  .00001201  00000-0  99485-4 0  9992","EPHEMERIS_TYPE":"0","CENTER_NAME":"EARTH","RCS_SIZE":"LARGE","MEAN_MOTION":"15.06396445","REV_AT_EPOCH":"5275","DECAY_DATE":null,"APOAPSIS":"548.210","ELEMENT_SET_NO":"999","EPOCH":"2022-02-16T13:48:34.798464","REF_FRAME":"TEME","OBJECT_TYPE":"PAYLOAD","CLASSIFICATION_TYPE":"U","PERIOD":"95.592","MEAN_ANOMALY":"294.7082","BSTAR":"0.00009948500000","FILE":"3302660","SEMIMAJOR_AXIS":"6925.359","MEAN_ELEMENT_THEORY":"SGP4","RA_OF_ASC_NODE":"85.0929","OBJECT_ID":"2021-021AL","ARG_OF_PERICENTER":"65.4056","SITE":"AFETR","COUNTRY_CODE":"US","NORAD_CAT_ID":"47894","ECCENTRICITY":"0.00014230","OBJECT_NAME":"STARLINK-2354","INCLINATION":"53.0547","TLE_LINE2":"2 47894  53.0547  85.0929 0001423  65.4056 294.7082 15.06396445 52751","LAUNCH_DATE":"2021-03-14","TIME_SYSTEM":"UTC","GP_ID":"196131930"},{"MEAN_MOTION":"15.06406713","RCS_SIZE":"LARGE","REV_AT_EPOCH":"5281","EPHEMERIS_TYPE":"0","CENTER_NAME":"EARTH","TLE_LINE1":"1 47895U 21021AM  22047.78549550  .00002700  00000-0  20004-3 0  9995","MEAN_MOTION_DOT":"0.00002700","PERIAPSIS":"546.181","MEAN_MOTION_DDOT":"0.0000000000000","MEAN_ANOMALY":"290.1259","CLASSIFICATION_TYPE":"U","PERIOD":"95.592","EPOCH":"2022-02-16T18:51:06.811200","REF_FRAME":"TEME","OBJECT_TYPE":"PAYLOAD","DECAY_DATE":null,"APOAPSIS":"548.205","ELEMENT_SET_NO":"999","OBJECT_NAME":"STARLINK-2355","SITE":"AFETR","COUNTRY_CODE":"US","ECCENTRICITY":"0.00014620","NORAD_CAT_ID":"47895","MEAN_ELEMENT_THEORY":"SGP4","RA_OF_ASC_NODE":"84.1582","OBJECT_ID":"2021-021AM","ARG_OF_PERICENTER":"69.9887","BSTAR":"0.00020004000000","FILE":"3302660","SEMIMAJOR_AXIS":"6925.328","GP_ID":"196132680","INCLINATION":"53.0553","TLE_LINE2":"2 47895  53.0553  84.1582 0001462  69.9887 290.1259 15.06406713 52811","TIME_SYSTEM":"UTC","LAUNCH_DATE":"2021-03-14"},{"GP_ID":"196131428","INCLINATION":"53.0552","LAUNCH_DATE":"2021-03-14","TIME_SYSTEM":"UTC","TLE_LINE2":"2 47896  53.0552  98.8848 0001635  62.3853 297.7302 15.06390111 52580","OBJECT_NAME":"STARLINK-2356","COUNTRY_CODE":"US","SITE":"AFETR","NORAD_CAT_ID":"47896","ECCENTRICITY":"0.00016350","RA_OF_ASC_NODE":"98.8848","MEAN_ELEMENT_THEORY":"SGP4","OBJECT_ID":"2021-021AN","ARG_OF_PERICENTER":"62.3853","FILE":"3302660","BSTAR":"0.00015879000000","SEMIMAJOR_AXIS":"6925.379","MEAN_ANOMALY":"297.7302","PERIOD":"95.593","CLASSIFICATION_TYPE":"U","EPOCH":"2022-02-16T20:16:42.993120","OBJECT_TYPE":"PAYLOAD","REF_FRAME":"TEME","APOAPSIS":"548.376","DECAY_DATE":null,"ELEMENT_SET_NO":"999","MEAN_MOTION":"15.06390111","RCS_SIZE":"LARGE","REV_AT_EPOCH":"5258","EPHEMERIS_TYPE":"0","CENTER_NAME":"EARTH","TLE_LINE1":"1 47896U 21021AN  22047.84494205  .00002084  00000-0  15879-3 0  9998","PERIAPSIS":"546.112","MEAN_MOTION_DOT":"0.00002084","MEAN_MOTION_DDOT":"0.0000000000000"}];
